{
 "type": "FeatureCollection",
 "features": [
  {
   "type": "Feature",
   "geometry": {
    "type": "Point",
    "coordinates": [
     95.78906,
     40.53441
    ]
   },
   "properties": {
    "name": "Anxi Zhou",
    "prefecture": "Anxi Zhou",
    "province": "Gansu Prov.",
    "dynasty": "清朝",
    "year": 1820,
    "population": 29553.1,
    "type": "Prefecture Seat",
    "county_id": "19"
   }
  },
  {
   "type": "Feature",
   "geometry": {
    "type": "Point",
    "coordinates": [
     98.51125,
     39.74494
    ]
   },
   "properties": {
    "name": "Su Zhou",
    "prefecture": "Su Zhou",
    "province": "Gansu Prov.",
    "dynasty": "清朝",
    "year": 1820,
    "population": 244673.6,
    "type": "Prefecture Seat",
    "county_id": "20"
   }
  },
  {
   "type": "Feature",
   "geometry": {
    "type": "Point",
    "coordinates": [
     91.64693,
     47.97065
    ]
   },
   "properties": {
    "name": "Kebuduo",
    "prefecture": "Kebuduo",
    "province": "Wuliyasutai",
    "dynasty": "清朝",
    "year": 1820,
    "population": 13720.4,
    "type": "Prefecture Seat",
    "county_id": "214"
   }
  },
  {
   "type": "Feature",
   "geometry": {
    "type": "Point",
    "coordinates": [
     96.77003,
     47.75987
    ]
   },
   "properties": {
    "name": "Wuliyasutai",
    "prefecture": "Sanyin'nuoyan Bu",
    "province": "Wuliyasutai",
    "dynasty": "清朝",
    "year": 1820,
    "population": 9200.7,
    "type": "Prefecture Seat",
    "county_id": "215"
   }
  },
  {
   "type": "Feature",
   "geometry": {
    "type": "Point",
    "coordinates": [
     82.9852,
     46.74827
    ]
   },
   "properties": {
    "name": "Ta'erbahatai",
    "prefecture": "Ta'erbahatai",
    "province": "Xinjiang",
    "dynasty": "清朝",
    "year": 1820,
    "population": 35211.0,
    "type": "Prefecture Seat",
    "county_id": "217"
   }
  },
  {
   "type": "Feature",
   "geometry": {
    "type": "Point",
    "coordinates": [
     84.68295,
     44.42502
    ]
   },
   "properties": {
    "name": "Ku'erkalawusu",
    "prefecture": "Kalawusu",
    "province": "Xinjiang",
    "dynasty": "清朝",
    "year": 1820,
    "population": 163.8,
    "type": "Prefecture Seat",
    "county_id": "218"
   }
  },
  {
   "type": "Feature",
   "geometry": {
    "type": "Point",
    "coordinates": [
     81.04382,
     43.93725
    ]
   },
   "properties": {
    "name": "Yili",
    "prefecture": "Yili",
    "province": "Xinjiang",
    "dynasty": "清朝",
    "year": 1820,
    "population": 3525.3,
    "type": "Prefecture Seat",
    "county_id": "219"
   }
  },
  {
   "type": "Feature",
   "geometry": {
    "type": "Point",
    "coordinates": [
     76.02389,
     39.48464
    ]
   },
   "properties": {
    "name": "Kashiga'er",
    "prefecture": "Kashiga'er",
    "province": "Xinjiang",
    "dynasty": "清朝",
    "year": 1820,
    "population": 28394.6,
    "type": "Prefecture Seat",
    "county_id": "220"
   }
  },
  {
   "type": "Feature",
   "geometry": {
    "type": "Point",
    "coordinates": [
     77.23219,
     38.3593
    ]
   },
   "properties": {
    "name": "Ye'erqiang",
    "prefecture": "Ye'erqiang",
    "province": "Xinjiang",
    "dynasty": "清朝",
    "year": 1820,
    "population": 40118.0,
    "type": "Prefecture Seat",
    "county_id": "221"
   }
  },
  {
   "type": "Feature",
   "geometry": {
    "type": "Point",
    "coordinates": [
     80.26083,
     41.16687
    ]
   },
   "properties": {
    "name": "Akesu",
    "prefecture": "Akesu",
    "province": "Xinjiang",
    "dynasty": "清朝",
    "year": 1820,
    "population": 30933.9,
    "type": "Prefecture Seat",
    "county_id": "222"
   }
  },
  {
   "type": "Feature",
   "geometry": {
    "type": "Point",
    "coordinates": [
     79.92809,
     37.10592
    ]
   },
   "properties": {
    "name": "Hetian",
    "prefecture": "Hetian",
    "province": "Xinjiang",
    "dynasty": "清朝",
    "year": 1820,
    "population": 8462.9,
    "type": "Prefecture Seat",
    "county_id": "223"
   }
  },
  {
   "type": "Feature",
   "geometry": {
    "type": "Point",
    "coordinates": [
     82.95547,
     41.68918
    ]
   },
   "properties": {
    "name": "Kuche",
    "prefecture": "Kuche",
    "province": "Xinjiang",
    "dynasty": "清朝",
    "year": 1820,
    "population": 6571.8,
    "type": "Prefecture Seat",
    "county_id": "224"
   }
  },
  {
   "type": "Feature",
   "geometry": {
    "type": "Point",
    "coordinates": [
     86.61571,
     42.08126
    ]
   },
   "properties": {
    "name": "Kalasha'er",
    "prefecture": "Kalasha'er",
    "province": "Xinjiang",
    "dynasty": "清朝",
    "year": 1820,
    "population": 15681.7,
    "type": "Prefecture Seat",
    "county_id": "225"
   }
  },
  {
   "type": "Feature",
   "geometry": {
    "type": "Point",
    "coordinates": [
     89.18117,
     42.9403
    ]
   },
   "properties": {
    "name": "Tulufan",
    "prefecture": "Tulufan",
    "province": "Xinjiang",
    "dynasty": "清朝",
    "year": 1820,
    "population": 2287.6,
    "type": "Prefecture Seat",
    "county_id": "226"
   }
  },
  {
   "type": "Feature",
   "geometry": {
    "type": "Point",
    "coordinates": [
     93.51872,
     42.81906
    ]
   },
   "properties": {
    "name": "Hami",
    "prefecture": "Hami",
    "province": "Xinjiang",
    "dynasty": "清朝",
    "year": 1820,
    "population": 10066.6,
    "type": "Prefecture Seat",
    "county_id": "228"
   }
  },
  {
   "type": "Feature",
   "geometry": {
    "type": "Point",
    "coordinates": [
     89.57947,
     44.02152
    ]
   },
   "properties": {
    "name": "Gucheng",
    "prefecture": "Gucheng",
    "province": "Xinjiang",
    "dynasty": "清朝",
    "year": 1820,
    "population": 13844.7,
    "type": "Prefecture Seat",
    "county_id": "229"
   }
  },
  {
   "type": "Feature",
   "geometry": {
    "type": "Point",
    "coordinates": [
     87.60406,
     43.79072
    ]
   },
   "properties": {
    "name": "Wulumuqi",
    "prefecture": "Wulumuqi",
    "province": "Xinjiang",
    "dynasty": "清朝",
    "year": 1820,
    "population": 38038.7,
    "type": "Prefecture Seat",
    "county_id": "231"
   }
  },
  {
   "type": "Feature",
   "geometry": {
    "type": "Point",
    "coordinates": [
     93.01356,
     43.59257
    ]
   },
   "properties": {
    "name": "Yihe Xian",
    "prefecture": "Balikun",
    "province": "Xinjiang",
    "dynasty": "清朝",
    "year": 1820,
    "population": 80000.0,
    "type": "Prefecture Seat",
    "county_id": "232"
   }
  },
  {
   "type": "Feature",
   "geometry": {
    "type": "Point",
    "coordinates": [
     79.22965,
     41.21323
    ]
   },
   "properties": {
    "name": "Wushi",
    "prefecture": "Wushi",
    "province": "Xinjiang",
    "dynasty": "清朝",
    "year": 1820,
    "population": 5083.0,
    "type": "Prefecture Seat",
    "county_id": "233"
   }
  },
  {
   "type": "Feature",
   "geometry": {
    "type": "Point",
    "coordinates": [
     78.24318,
     32.11421
    ]
   },
   "properties": {
    "name": "Bidi",
    "prefecture": "Tibet",
    "province": "Tibet",
    "dynasty": "清朝",
    "year": 1820,
    "population": 9366.4,
    "type": "County Seat",
    "county_id": "1501"
   }
  },
  {
   "type": "Feature",
   "geometry": {
    "type": "Point",
    "coordinates": [
     79.65387,
     33.4224
    ]
   },
   "properties": {
    "name": "Rutuo",
    "prefecture": "Tibet",
    "province": "Tibet",
    "dynasty": "清朝",
    "year": 1820,
    "population": 185601.0,
    "type": "County Seat",
    "county_id": "1592"
   }
  },
  {
   "type": "Feature",
   "geometry": {
    "type": "Point",
    "coordinates": [
     77.56185,
     34.16876
    ]
   },
   "properties": {
    "name": "Ladake",
    "prefecture": "Tibet",
    "province": "Tibet",
    "dynasty": "清朝",
    "year": 1820,
    "population": 28931.4,
    "type": "County Seat",
    "county_id": "1673"
   }
  },
  {
   "type": "Feature",
   "geometry": {
    "type": "Point",
    "coordinates": [
     100.0608,
     39.31415
    ]
   },
   "properties": {
    "name": "Fuyi Ting",
    "prefecture": "Ganzhou Fu",
    "province": "Gansu Prov.",
    "dynasty": "清朝",
    "year": 1820,
    "population": 60829.2,
    "type": "County Seat",
    "county_id": "1704"
   }
  },
  {
   "type": "Feature",
   "geometry": {
    "type": "Point",
    "coordinates": [
     99.82028,
     39.38122
    ]
   },
   "properties": {
    "name": "Gaotai Xian",
    "prefecture": "Su Zhou",
    "province": "Gansu Prov.",
    "dynasty": "清朝",
    "year": 1820,
    "population": 75094.4,
    "type": "County Seat",
    "county_id": "1711"
   }
  },
  {
   "type": "Feature",
   "geometry": {
    "type": "Point",
    "coordinates": [
     81.64259,
     36.81384
    ]
   },
   "properties": {
    "name": "Kelediya",
    "prefecture": "Hetian",
    "province": "Xinjiang",
    "dynasty": "清朝",
    "year": 1820,
    "population": 28347.1,
    "type": "County Seat",
    "county_id": "1744"
   }
  },
  {
   "type": "Feature",
   "geometry": {
    "type": "Point",
    "coordinates": [
     80.80241,
     37.0006
    ]
   },
   "properties": {
    "name": "Qi'erla",
    "prefecture": "Hetian",
    "province": "Xinjiang",
    "dynasty": "清朝",
    "year": 1820,
    "population": 4107.4,
    "type": "County Seat",
    "county_id": "1757"
   }
  },
  {
   "type": "Feature",
   "geometry": {
    "type": "Point",
    "coordinates": [
     97.02384,
     40.27387
    ]
   },
   "properties": {
    "name": "Yumen Xian",
    "prefecture": "Anxi Zhou",
    "province": "Gansu Prov.",
    "dynasty": "清朝",
    "year": 1820,
    "population": 17054.9,
    "type": "County Seat",
    "county_id": "1759"
   }
  },
  {
   "type": "Feature",
   "geometry": {
    "type": "Point",
    "coordinates": [
     94.65088,
     40.14053
    ]
   },
   "properties": {
    "name": "Dunhuang Xian",
    "prefecture": "Anxi Zhou",
    "province": "Gansu Prov.",
    "dynasty": "清朝",
    "year": 1820,
    "population": 31265.0,
    "type": "County Seat",
    "county_id": "1767"
   }
  },
  {
   "type": "Feature",
   "geometry": {
    "type": "Point",
    "coordinates": [
     79.7402,
     37.26646
    ]
   },
   "properties": {
    "name": "Halahashen",
    "prefecture": "Hetian",
    "province": "Xinjiang",
    "dynasty": "清朝",
    "year": 1820,
    "population": 3685.6,
    "type": "County Seat",
    "county_id": "1777"
   }
  },
  {
   "type": "Feature",
   "geometry": {
    "type": "Point",
    "coordinates": [
     78.45837,
     37.1843
    ]
   },
   "properties": {
    "name": "Sangzhu",
    "prefecture": "Ye'erqiang",
    "province": "Xinjiang",
    "dynasty": "清朝",
    "year": 1820,
    "population": 8309.5,
    "type": "County Seat",
    "county_id": "1782"
   }
  },
  {
   "type": "Feature",
   "geometry": {
    "type": "Point",
    "coordinates": [
     77.43313,
     37.85388
    ]
   },
   "properties": {
    "name": "Ha'erhalike",
    "prefecture": "Ye'erqiang",
    "province": "Xinjiang",
    "dynasty": "清朝",
    "year": 1820,
    "population": 3771.5,
    "type": "County Seat",
    "county_id": "1797"
   }
  },
  {
   "type": "Feature",
   "geometry": {
    "type": "Point",
    "coordinates": [
     76.91184,
     37.72188
    ]
   },
   "properties": {
    "name": "Qipan",
    "prefecture": "Ye'erqiang",
    "province": "Xinjiang",
    "dynasty": "清朝",
    "year": 1820,
    "population": 1626.1,
    "type": "County Seat",
    "county_id": "1799"
   }
  },
  {
   "type": "Feature",
   "geometry": {
    "type": "Point",
    "coordinates": [
     76.70197,
     37.867
    ]
   },
   "properties": {
    "name": "Heshenlapu",
    "prefecture": "Ye'erqiang",
    "province": "Xinjiang",
    "dynasty": "清朝",
    "year": 1820,
    "population": 739.1,
    "type": "County Seat",
    "county_id": "1804"
   }
  },
  {
   "type": "Feature",
   "geometry": {
    "type": "Point",
    "coordinates": [
     75.22572,
     37.77567
    ]
   },
   "properties": {
    "name": "Seleku'er",
    "prefecture": "Ye'erqiang",
    "province": "Xinjiang",
    "dynasty": "清朝",
    "year": 1820,
    "population": 1930.8,
    "type": "County Seat",
    "county_id": "1810"
   }
  },
  {
   "type": "Feature",
   "geometry": {
    "type": "Point",
    "coordinates": [
     94.56381,
     42.76199
    ]
   },
   "properties": {
    "name": "Talenaqin",
    "prefecture": "Hami",
    "province": "Xinjiang",
    "dynasty": "清朝",
    "year": 1820,
    "population": 3226.4,
    "type": "County Seat",
    "county_id": "1815"
   }
  },
  {
   "type": "Feature",
   "geometry": {
    "type": "Point",
    "coordinates": [
     76.18812,
     38.84105
    ]
   },
   "properties": {
    "name": "Yingjisha'er",
    "prefecture": "Kashiga'er",
    "province": "Xinjiang",
    "dynasty": "清朝",
    "year": 1820,
    "population": 6799.1,
    "type": "County Seat",
    "county_id": "1823"
   }
  },
  {
   "type": "Feature",
   "geometry": {
    "type": "Point",
    "coordinates": [
     86.13626,
     41.75679
    ]
   },
   "properties": {
    "name": "Kulongle",
    "prefecture": "Kalasha'er",
    "province": "Xinjiang",
    "dynasty": "清朝",
    "year": 1820,
    "population": 6394.9,
    "type": "County Seat",
    "county_id": "1826"
   }
  },
  {
   "type": "Feature",
   "geometry": {
    "type": "Point",
    "coordinates": [
     89.75939,
     42.74258
    ]
   },
   "properties": {
    "name": "Lukechake",
    "prefecture": "Tulufan",
    "province": "Xinjiang",
    "dynasty": "清朝",
    "year": 1820,
    "population": 3701.8,
    "type": "County Seat",
    "county_id": "1828"
   }
  },
  {
   "type": "Feature",
   "geometry": {
    "type": "Point",
    "coordinates": [
     90.26952,
     42.8732
    ]
   },
   "properties": {
    "name": "Pizhan",
    "prefecture": "Tulufan",
    "province": "Xinjiang",
    "dynasty": "清朝",
    "year": 1820,
    "population": 2719.6,
    "type": "County Seat",
    "county_id": "1830"
   }
  },
  {
   "type": "Feature",
   "geometry": {
    "type": "Point",
    "coordinates": [
     76.74436,
     39.38159
    ]
   },
   "properties": {
    "name": "Paizu'abate",
    "prefecture": "Kashiga'er",
    "province": "Xinjiang",
    "dynasty": "清朝",
    "year": 1820,
    "population": 11624.4,
    "type": "County Seat",
    "county_id": "1831"
   }
  },
  {
   "type": "Feature",
   "geometry": {
    "type": "Point",
    "coordinates": [
     82.77669,
     41.21852
    ]
   },
   "properties": {
    "name": "Shaya'er",
    "prefecture": "Kuche",
    "province": "Xinjiang",
    "dynasty": "清朝",
    "year": 1820,
    "population": 5576.2,
    "type": "County Seat",
    "county_id": "1832"
   }
  },
  {
   "type": "Feature",
   "geometry": {
    "type": "Point",
    "coordinates": [
     75.67657,
     39.09768
    ]
   },
   "properties": {
    "name": "Tashenbalike",
    "prefecture": "Kashiga'er",
    "province": "Xinjiang",
    "dynasty": "清朝",
    "year": 1820,
    "population": 19594.9,
    "type": "County Seat",
    "county_id": "1834"
   }
  },
  {
   "type": "Feature",
   "geometry": {
    "type": "Point",
    "coordinates": [
     84.25119,
     41.77377
    ]
   },
   "properties": {
    "name": "Yugu'er",
    "prefecture": "Kalasha'er",
    "province": "Xinjiang",
    "dynasty": "清朝",
    "year": 1820,
    "population": 5934.3,
    "type": "County Seat",
    "county_id": "1835"
   }
  },
  {
   "type": "Feature",
   "geometry": {
    "type": "Point",
    "coordinates": [
     82.26549,
     41.76656
    ]
   },
   "properties": {
    "name": "Sailamu",
    "prefecture": "Akesu",
    "province": "Xinjiang",
    "dynasty": "清朝",
    "year": 1820,
    "population": 1278.0,
    "type": "County Seat",
    "county_id": "1842"
   }
  },
  {
   "type": "Feature",
   "geometry": {
    "type": "Point",
    "coordinates": [
     81.8667,
     41.79325
    ]
   },
   "properties": {
    "name": "Baicheng",
    "prefecture": "Akesu",
    "province": "Xinjiang",
    "dynasty": "清朝",
    "year": 1820,
    "population": 2395.0,
    "type": "County Seat",
    "county_id": "1843"
   }
  },
  {
   "type": "Feature",
   "geometry": {
    "type": "Point",
    "coordinates": [
     90.28984,
     43.82141
    ]
   },
   "properties": {
    "name": "Mulei",
    "prefecture": "Gucheng",
    "province": "Xinjiang",
    "dynasty": "清朝",
    "year": 1820,
    "population": 12701.7,
    "type": "County Seat",
    "county_id": "1845"
   }
  },
  {
   "type": "Feature",
   "geometry": {
    "type": "Point",
    "coordinates": [
     94.87542,
     44.64679
    ]
   },
   "properties": {
    "name": "Youyihoumoqi",
    "prefecture": "Zhasaketu Han Bu",
    "province": "Wuliyasutai",
    "dynasty": "清朝",
    "year": 1820,
    "population": 3678.6,
    "type": "County Seat",
    "county_id": "1847"
   }
  },
  {
   "type": "Feature",
   "geometry": {
    "type": "Point",
    "coordinates": [
     89.90378,
     43.812
    ]
   },
   "properties": {
    "name": "Qitai",
    "prefecture": "Gucheng",
    "province": "Xinjiang",
    "dynasty": "清朝",
    "year": 1820,
    "population": 1353.6,
    "type": "County Seat",
    "county_id": "1848"
   }
  },
  {
   "type": "Feature",
   "geometry": {
    "type": "Point",
    "coordinates": [
     89.21064,
     44.06355
    ]
   },
   "properties": {
    "name": "Jimusa",
    "prefecture": "Wulumuqi",
    "province": "Xinjiang",
    "dynasty": "清朝",
    "year": 1820,
    "population": 14949.0,
    "type": "County Seat",
    "county_id": "1854"
   }
  },
  {
   "type": "Feature",
   "geometry": {
    "type": "Point",
    "coordinates": [
     87.74952,
     43.80035
    ]
   },
   "properties": {
    "name": "Dihuacheng",
    "prefecture": "Wulumuqi",
    "province": "Xinjiang",
    "dynasty": "清朝",
    "year": 1820,
    "population": 7294.9,
    "type": "County Seat",
    "county_id": "1855"
   }
  },
  {
   "type": "Feature",
   "geometry": {
    "type": "Point",
    "coordinates": [
     87.96982,
     44.16052
    ]
   },
   "properties": {
    "name": "Fukang Xian",
    "prefecture": "Wulumuqi",
    "province": "Xinjiang",
    "dynasty": "清朝",
    "year": 1820,
    "population": 24762.0,
    "type": "County Seat",
    "county_id": "1866"
   }
  },
  {
   "type": "Feature",
   "geometry": {
    "type": "Point",
    "coordinates": [
     87.30721,
     44.01788
    ]
   },
   "properties": {
    "name": "Changji Xian",
    "prefecture": "Wulumuqi",
    "province": "Xinjiang",
    "dynasty": "清朝",
    "year": 1820,
    "population": 6583.3,
    "type": "County Seat",
    "county_id": "1867"
   }
  },
  {
   "type": "Feature",
   "geometry": {
    "type": "Point",
    "coordinates": [
     86.89825,
     44.19142
    ]
   },
   "properties": {
    "name": "Hutubi",
    "prefecture": "Wulumuqi",
    "province": "Xinjiang",
    "dynasty": "清朝",
    "year": 1820,
    "population": 26704.5,
    "type": "County Seat",
    "county_id": "1874"
   }
  },
  {
   "type": "Feature",
   "geometry": {
    "type": "Point",
    "coordinates": [
     96.73136,
     45.99647
    ]
   },
   "properties": {
    "name": "Nalanhutuketu",
    "prefecture": "Zhasaketu Han Bu",
    "province": "Wuliyasutai",
    "dynasty": "清朝",
    "year": 1820,
    "population": 967.6,
    "type": "County Seat",
    "county_id": "1875"
   }
  },
  {
   "type": "Feature",
   "geometry": {
    "type": "Point",
    "coordinates": [
     86.21358,
     44.296
    ]
   },
   "properties": {
    "name": "Suilai Xian",
    "prefecture": "Wulumuqi",
    "province": "Xinjiang",
    "dynasty": "清朝",
    "year": 1820,
    "population": 92667.6,
    "type": "County Seat",
    "county_id": "1883"
   }
  },
  {
   "type": "Feature",
   "geometry": {
    "type": "Point",
    "coordinates": [
     95.52998,
     46.35424
    ]
   },
   "properties": {
    "name": "Huiteqi",
    "prefecture": "Zhasaketu Han Bu",
    "province": "Wuliyasutai",
    "dynasty": "清朝",
    "year": 1820,
    "population": 2272.3,
    "type": "County Seat",
    "county_id": "1893"
   }
  },
  {
   "type": "Feature",
   "geometry": {
    "type": "Point",
    "coordinates": [
     93.95284,
     46.29195
    ]
   },
   "properties": {
    "name": "Zhongyouyimouqi",
    "prefecture": "Zhasaketu Han Bu",
    "province": "Wuliyasutai",
    "dynasty": "清朝",
    "year": 1820,
    "population": 1404.0,
    "type": "County Seat",
    "county_id": "1899"
   }
  },
  {
   "type": "Feature",
   "geometry": {
    "type": "Point",
    "coordinates": [
     96.84981,
     46.71168
    ]
   },
   "properties": {
    "name": "Nalubanchanhutuketu",
    "prefecture": "Zhasaketu Han Bu",
    "province": "Wuliyasutai",
    "dynasty": "清朝",
    "year": 1820,
    "population": 885.7,
    "type": "County Seat",
    "county_id": "1900"
   }
  },
  {
   "type": "Feature",
   "geometry": {
    "type": "Point",
    "coordinates": [
     93.27865,
     46.3373
    ]
   },
   "properties": {
    "name": "Zhongyouyizuoqi",
    "prefecture": "Zhasaketu Han Bu",
    "province": "Wuliyasutai",
    "dynasty": "清朝",
    "year": 1820,
    "population": 380.1,
    "type": "County Seat",
    "county_id": "1903"
   }
  },
  {
   "type": "Feature",
   "geometry": {
    "type": "Point",
    "coordinates": [
     95.51389,
     46.87182
    ]
   },
   "properties": {
    "name": "Zuoyizhongqijiyouyihouqi",
    "prefecture": "Zhasaketu Han Bu",
    "province": "Wuliyasutai",
    "dynasty": "清朝",
    "year": 1820,
    "population": 2241.6,
    "type": "County Seat",
    "county_id": "1907"
   }
  },
  {
   "type": "Feature",
   "geometry": {
    "type": "Point",
    "coordinates": [
     81.31998,
     43.91536
    ]
   },
   "properties": {
    "name": "Ningyuancheng",
    "prefecture": "Yili",
    "province": "Xinjiang",
    "dynasty": "清朝",
    "year": 1820,
    "population": 857.5,
    "type": "County Seat",
    "county_id": "1908"
   }
  },
  {
   "type": "Feature",
   "geometry": {
    "type": "Point",
    "coordinates": [
     81.24427,
     43.96349
    ]
   },
   "properties": {
    "name": "Huiningcheng",
    "prefecture": "Yili",
    "province": "Xinjiang",
    "dynasty": "清朝",
    "year": 1820,
    "population": 118.0,
    "type": "County Seat",
    "county_id": "1911"
   }
  },
  {
   "type": "Feature",
   "geometry": {
    "type": "Point",
    "coordinates": [
     90.75425,
     46.23711
    ]
   },
   "properties": {
    "name": "Xintu'erhute'erqi",
    "prefecture": "Kebuduo",
    "province": "Wuliyasutai",
    "dynasty": "清朝",
    "year": 1820,
    "population": 10957.2,
    "type": "County Seat",
    "county_id": "1912"
   }
  },
  {
   "type": "Feature",
   "geometry": {
    "type": "Point",
    "coordinates": [
     96.84087,
     47.29036
    ]
   },
   "properties": {
    "name": "Zhonghouqi",
    "prefecture": "Sanyin'nuoyan Bu",
    "province": "Wuliyasutai",
    "dynasty": "清朝",
    "year": 1820,
    "population": 977.4,
    "type": "County Seat",
    "county_id": "1915"
   }
  },
  {
   "type": "Feature",
   "geometry": {
    "type": "Point",
    "coordinates": [
     82.88301,
     44.60865
    ]
   },
   "properties": {
    "name": "Jinghe Xian",
    "prefecture": "Kalawusu",
    "province": "Xinjiang",
    "dynasty": "清朝",
    "year": 1820,
    "population": 64.2,
    "type": "County Seat",
    "county_id": "1917"
   }
  },
  {
   "type": "Feature",
   "geometry": {
    "type": "Point",
    "coordinates": [
     93.53464,
     46.91464
    ]
   },
   "properties": {
    "name": "Zuoyiyouqi",
    "prefecture": "Zhasaketu Han Bu",
    "province": "Wuliyasutai",
    "dynasty": "清朝",
    "year": 1820,
    "population": 3243.6,
    "type": "County Seat",
    "county_id": "1919"
   }
  },
  {
   "type": "Feature",
   "geometry": {
    "type": "Point",
    "coordinates": [
     91.165,
     46.54257
    ]
   },
   "properties": {
    "name": "Xinheshuoteqi",
    "prefecture": "Kebuduo",
    "province": "Wuliyasutai",
    "dynasty": "清朝",
    "year": 1820,
    "population": 1434.3,
    "type": "County Seat",
    "county_id": "1921"
   }
  },
  {
   "type": "Feature",
   "geometry": {
    "type": "Point",
    "coordinates": [
     92.74616,
     46.84591
    ]
   },
   "properties": {
    "name": "Zhahaqinqi",
    "prefecture": "Kebuduo",
    "province": "Wuliyasutai",
    "dynasty": "清朝",
    "year": 1820,
    "population": 4062.0,
    "type": "County Seat",
    "county_id": "1923"
   }
  },
  {
   "type": "Feature",
   "geometry": {
    "type": "Point",
    "coordinates": [
     80.85975,
     44.23325
    ]
   },
   "properties": {
    "name": "Guangrencheng",
    "prefecture": "Yili",
    "province": "Xinjiang",
    "dynasty": "清朝",
    "year": 1820,
    "population": 345.1,
    "type": "County Seat",
    "county_id": "1925"
   }
  },
  {
   "type": "Feature",
   "geometry": {
    "type": "Point",
    "coordinates": [
     80.45663,
     44.1624
    ]
   },
   "properties": {
    "name": "Gongchencheng",
    "prefecture": "Yili",
    "province": "Xinjiang",
    "dynasty": "清朝",
    "year": 1820,
    "population": 4836.6,
    "type": "County Seat",
    "county_id": "1926"
   }
  },
  {
   "type": "Feature",
   "geometry": {
    "type": "Point",
    "coordinates": [
     95.43048,
     48.53967
    ]
   },
   "properties": {
    "name": "Zuoyizuoqi",
    "prefecture": "Zhasaketu Han Bu",
    "province": "Wuliyasutai",
    "dynasty": "清朝",
    "year": 1820,
    "population": 2647.1,
    "type": "County Seat",
    "county_id": "1940"
   }
  },
  {
   "type": "Feature",
   "geometry": {
    "type": "Point",
    "coordinates": [
     96.78089,
     48.9153
    ]
   },
   "properties": {
    "name": "Zhongyouyimociqi",
    "prefecture": "Zhasaketu Han Bu",
    "province": "Wuliyasutai",
    "dynasty": "清朝",
    "year": 1820,
    "population": 1532.6,
    "type": "County Seat",
    "county_id": "1943"
   }
  },
  {
   "type": "Feature",
   "geometry": {
    "type": "Point",
    "coordinates": [
     91.9728,
     48.25915
    ]
   },
   "properties": {
    "name": "Ming'ateqi",
    "prefecture": "Kebuduo",
    "province": "Wuliyasutai",
    "dynasty": "清朝",
    "year": 1820,
    "population": 4529.3,
    "type": "County Seat",
    "county_id": "1945"
   }
  },
  {
   "type": "Feature",
   "geometry": {
    "type": "Point",
    "coordinates": [
     95.08481,
     49.00104
    ]
   },
   "properties": {
    "name": "Zuoyiqianqijizuoyihoumoqi",
    "prefecture": "Zhasaketu Han Bu",
    "province": "Wuliyasutai",
    "dynasty": "清朝",
    "year": 1820,
    "population": 5896.9,
    "type": "County Seat",
    "county_id": "1947"
   }
  },
  {
   "type": "Feature",
   "geometry": {
    "type": "Point",
    "coordinates": [
     73.51973,
     43.91492
    ]
   },
   "properties": {
    "name": "He'ergun",
    "prefecture": "Yili",
    "province": "Xinjiang",
    "dynasty": "清朝",
    "year": 1820,
    "population": 10882.5,
    "type": "County Seat",
    "county_id": "1951"
   }
  },
  {
   "type": "Feature",
   "geometry": {
    "type": "Point",
    "coordinates": [
     91.49871,
     49.62118
    ]
   },
   "properties": {
    "name": "Du'erbotezuoyi",
    "prefecture": "Kebuduo",
    "province": "Wuliyasutai",
    "dynasty": "清朝",
    "year": 1820,
    "population": 16112.9,
    "type": "County Seat",
    "county_id": "1953"
   }
  },
  {
   "type": "Feature",
   "geometry": {
    "type": "Point",
    "coordinates": [
     92.08608,
     49.94444
    ]
   },
   "properties": {
    "name": "Du'erboteyouyi",
    "prefecture": "Kebuduo",
    "province": "Wuliyasutai",
    "dynasty": "清朝",
    "year": 1820,
    "population": 9183.8,
    "type": "County Seat",
    "county_id": "1954"
   }
  },
  {
   "type": "Feature",
   "geometry": {
    "type": "Point",
    "coordinates": [
     94.6865,
     50.86566
    ]
   },
   "properties": {
    "name": "Tangnuwulianghaiqi",
    "prefecture": "Tangno'uriyangqai",
    "province": "Wuliyasutai",
    "dynasty": "清朝",
    "year": 1820,
    "population": 3604.4,
    "type": "County Seat",
    "county_id": "1955"
   }
  },
  {
   "type": "Feature",
   "geometry": {
    "type": "Point",
    "coordinates": [
     95.46796,
     51.19361
    ]
   },
   "properties": {
    "name": "Salajikewulianghaiqi",
    "prefecture": "Tangno'uriyangqai",
    "province": "Wuliyasutai",
    "dynasty": "清朝",
    "year": 1820,
    "population": 5275.9,
    "type": "County Seat",
    "county_id": "1956"
   }
  },
  {
   "type": "Feature",
   "geometry": {
    "type": "Point",
    "coordinates": [
     90.84993,
     51.05576
    ]
   },
   "properties": {
    "name": "Kemuqikewulianghaiqi",
    "prefecture": "Tangno'uriyangqai",
    "province": "Wuliyasutai",
    "dynasty": "清朝",
    "year": 1820,
    "population": 11956.9,
    "type": "County Seat",
    "county_id": "1957"
   }
  },
  {
   "type": "Feature",
   "geometry": {
    "type": "Point",
    "coordinates": [
     96.43618,
     52.28544
    ]
   },
   "properties": {
    "name": "Tuojinwulianghaiqi",
    "prefecture": "Tangno'uriyangqai",
    "province": "Wuliyasutai",
    "dynasty": "清朝",
    "year": 1820,
    "population": 9937.8,
    "type": "County Seat",
    "county_id": "1958"
   }
  },
  {
   "type": "Feature",
   "geometry": {
    "type": "Point",
    "coordinates": [
     100.23646,
     39.33001
    ]
   },
   "properties": {
    "name": "Lude Xian",
    "prefecture": "Zhangye Jun",
    "province": "Liangzhou Cishibu",
    "dynasty": "汉朝",
    "year": 2,
    "population": 12630.7,
    "type": "County Seat",
    "county_id": "1103"
   }
  },
  {
   "type": "Feature",
   "geometry": {
    "type": "Point",
    "coordinates": [
     99.59648,
     39.39094
    ]
   },
   "properties": {
    "name": "Biaoshi Xian",
    "prefecture": "Jiuquan Jun",
    "province": "Liangzhou Cishibu",
    "dynasty": "汉朝",
    "year": 2,
    "population": 3467.0,
    "type": "County Seat",
    "county_id": "1109"
   }
  },
  {
   "type": "Feature",
   "geometry": {
    "type": "Point",
    "coordinates": [
     98.93412,
     39.53359
    ]
   },
   "properties": {
    "name": "Leguan Xian",
    "prefecture": "Jiuquan Jun",
    "province": "Liangzhou Cishibu",
    "dynasty": "汉朝",
    "year": 2,
    "population": 3652.9,
    "type": "County Seat",
    "county_id": "1118"
   }
  },
  {
   "type": "Feature",
   "geometry": {
    "type": "Point",
    "coordinates": [
     98.49711,
     39.72665
    ]
   },
   "properties": {
    "name": "Lufu Xian",
    "prefecture": "Jiuquan Jun",
    "province": "Liangzhou Cishibu",
    "dynasty": "汉朝",
    "year": 2,
    "population": 18836.8,
    "type": "Prefecture Seat",
    "county_id": "1131"
   }
  },
  {
   "type": "Feature",
   "geometry": {
    "type": "Point",
    "coordinates": [
     99.3623,
     39.87128
    ]
   },
   "properties": {
    "name": "Kuaishui Xian",
    "prefecture": "Jiuquan Jun",
    "province": "Liangzhou Cishibu",
    "dynasty": "汉朝",
    "year": 2,
    "population": 13824.8,
    "type": "County Seat",
    "county_id": "1140"
   }
  },
  {
   "type": "Feature",
   "geometry": {
    "type": "Point",
    "coordinates": [
     97.49802,
     40.00738
    ]
   },
   "properties": {
    "name": "Yumen Xian",
    "prefecture": "Jiuquan Jun",
    "province": "Liangzhou Cishibu",
    "dynasty": "汉朝",
    "year": 2,
    "population": 11077.6,
    "type": "County Seat",
    "county_id": "1154"
   }
  },
  {
   "type": "Feature",
   "geometry": {
    "type": "Point",
    "coordinates": [
     94.18265,
     39.9418
    ]
   },
   "properties": {
    "name": "Longle Xian",
    "prefecture": "Dunhuang Jun",
    "province": "Liangzhou Cishibu",
    "dynasty": "汉朝",
    "year": 2,
    "population": 2173.9,
    "type": "County Seat",
    "county_id": "1166"
   }
  },
  {
   "type": "Feature",
   "geometry": {
    "type": "Point",
    "coordinates": [
     96.21567,
     40.20255
    ]
   },
   "properties": {
    "name": "Mingan Xian",
    "prefecture": "Dunhuang Jun",
    "province": "Liangzhou Cishibu",
    "dynasty": "汉朝",
    "year": 2,
    "population": 8545.6,
    "type": "County Seat",
    "county_id": "1180"
   }
  },
  {
   "type": "Feature",
   "geometry": {
    "type": "Point",
    "coordinates": [
     94.59506,
     40.13961
    ]
   },
   "properties": {
    "name": "Dunhuang Xian",
    "prefecture": "Dunhuang Jun",
    "province": "Liangzhou Cishibu",
    "dynasty": "汉朝",
    "year": 2,
    "population": 12245.0,
    "type": "Prefecture Seat",
    "county_id": "1184"
   }
  },
  {
   "type": "Feature",
   "geometry": {
    "type": "Point",
    "coordinates": [
     96.97646,
     40.40817
    ]
   },
   "properties": {
    "name": "Chitou Xian",
    "prefecture": "Jiuquan Jun",
    "province": "Liangzhou Cishibu",
    "dynasty": "汉朝",
    "year": 2,
    "population": 25843.3,
    "type": "County Seat",
    "county_id": "1196"
   }
  },
  {
   "type": "Feature",
   "geometry": {
    "type": "Point",
    "coordinates": [
     95.63267,
     40.3818
    ]
   },
   "properties": {
    "name": "Guangzhi Xian",
    "prefecture": "Dunhuang Jun",
    "province": "Liangzhou Cishibu",
    "dynasty": "汉朝",
    "year": 2,
    "population": 15372.7,
    "type": "County Seat",
    "county_id": "1205"
   }
  },
  {
   "type": "Feature",
   "geometry": {
    "type": "Point",
    "coordinates": [
     88.8761,
     42.83557
    ]
   },
   "properties": {
    "name": "Tianshan Xian",
    "prefecture": "Xi Zhou",
    "province": "Longyou Dao",
    "dynasty": "唐朝",
    "year": 742,
    "population": 10093.9,
    "type": "County Seat",
    "county_id": "1377"
   }
  },
  {
   "type": "Feature",
   "geometry": {
    "type": "Point",
    "coordinates": [
     89.58811,
     42.79504
    ]
   },
   "properties": {
    "name": "Gaochang Xian",
    "prefecture": "Xi Zhou",
    "province": "Longyou Dao",
    "dynasty": "唐朝",
    "year": 742,
    "population": 8129.3,
    "type": "Prefecture Seat",
    "county_id": "1378"
   }
  },
  {
   "type": "Feature",
   "geometry": {
    "type": "Point",
    "coordinates": [
     90.25781,
     42.85982
    ]
   },
   "properties": {
    "name": "Puchang Xian",
    "prefecture": "Xi Zhou",
    "province": "Longyou Dao",
    "dynasty": "唐朝",
    "year": 742,
    "population": 17424.3,
    "type": "County Seat",
    "county_id": "1379"
   }
  },
  {
   "type": "Feature",
   "geometry": {
    "type": "Point",
    "coordinates": [
     89.23032,
     44.12624
    ]
   },
   "properties": {
    "name": "Jinman Xian",
    "prefecture": "Ting Zhou",
    "province": "Longyou Dao",
    "dynasty": "唐朝",
    "year": 742,
    "population": 2990.8,
    "type": "Prefecture Seat",
    "county_id": "1380"
   }
  },
  {
   "type": "Feature",
   "geometry": {
    "type": "Point",
    "coordinates": [
     94.18255,
     39.92925
    ]
   },
   "properties": {
    "name": "Shouchang Xian",
    "prefecture": "Sha Zhou",
    "province": "Longyou Dao",
    "dynasty": "唐朝",
    "year": 742,
    "population": 13315.2,
    "type": "County Seat",
    "county_id": "1381"
   }
  },
  {
   "type": "Feature",
   "geometry": {
    "type": "Point",
    "coordinates": [
     94.63435,
     40.1372
    ]
   },
   "properties": {
    "name": "Dunhuang Xian",
    "prefecture": "Sha Zhou",
    "province": "Longyou Dao",
    "dynasty": "唐朝",
    "year": 742,
    "population": 2934.7,
    "type": "Prefecture Seat",
    "county_id": "1382"
   }
  },
  {
   "type": "Feature",
   "geometry": {
    "type": "Point",
    "coordinates": [
     93.50613,
     42.82197
    ]
   },
   "properties": {
    "name": "Yiwu Xian",
    "prefecture": "Yi Zhou",
    "province": "Longyou Dao",
    "dynasty": "唐朝",
    "year": 742,
    "population": 3019.9,
    "type": "Prefecture Seat",
    "county_id": "1383"
   }
  },
  {
   "type": "Feature",
   "geometry": {
    "type": "Point",
    "coordinates": [
     89.7867,
     42.72248
    ]
   },
   "properties": {
    "name": "Liuzhong Xian",
    "prefecture": "Xi Zhou",
    "province": "Longyou Dao",
    "dynasty": "唐朝",
    "year": 742,
    "population": 11152.3,
    "type": "County Seat",
    "county_id": "1384"
   }
  },
  {
   "type": "Feature",
   "geometry": {
    "type": "Point",
    "coordinates": [
     88.91654,
     43.01809
    ]
   },
   "properties": {
    "name": "Jiaohe Xian",
    "prefecture": "Xi Zhou",
    "province": "Longyou Dao",
    "dynasty": "唐朝",
    "year": 742,
    "population": 2676.1,
    "type": "County Seat",
    "county_id": "1385"
   }
  },
  {
   "type": "Feature",
   "geometry": {
    "type": "Point",
    "coordinates": [
     92.91942,
     42.9318
    ]
   },
   "properties": {
    "name": "Nazhi Xian",
    "prefecture": "Yi Zhou",
    "province": "Longyou Dao",
    "dynasty": "唐朝",
    "year": 742,
    "population": 3574.7,
    "type": "County Seat",
    "county_id": "1386"
   }
  },
  {
   "type": "Feature",
   "geometry": {
    "type": "Point",
    "coordinates": [
     87.77819,
     43.931
    ]
   },
   "properties": {
    "name": "Luntai Xian",
    "prefecture": "Ting Zhou",
    "province": "Longyou Dao",
    "dynasty": "唐朝",
    "year": 742,
    "population": 5227.1,
    "type": "County Seat",
    "county_id": "1387"
   }
  },
  {
   "type": "Feature",
   "geometry": {
    "type": "Point",
    "coordinates": [
     89.95203,
     43.76852
    ]
   },
   "properties": {
    "name": "Pulei Xian",
    "prefecture": "Ting Zhou",
    "province": "Longyou Dao",
    "dynasty": "唐朝",
    "year": 742,
    "population": 1746.1,
    "type": "County Seat",
    "county_id": "1388"
   }
  },
  {
   "type": "Feature",
   "geometry": {
    "type": "Point",
    "coordinates": [
     95.74063,
     40.27196
    ]
   },
   "properties": {
    "name": "Changle Xian",
    "prefecture": "Gua Zhou",
    "province": "Longyou Dao",
    "dynasty": "唐朝",
    "year": 742,
    "population": 1133.3,
    "type": "County Seat",
    "county_id": "1389"
   }
  },
  {
   "type": "Feature",
   "geometry": {
    "type": "Point",
    "coordinates": [
     94.4675,
     42.60016
    ]
   },
   "properties": {
    "name": "Rouyuan Xian",
    "prefecture": "Yi Zhou",
    "province": "Longyou Dao",
    "dynasty": "唐朝",
    "year": 742,
    "population": 3562.4,
    "type": "County Seat",
    "county_id": "1390"
   }
  },
  {
   "type": "Feature",
   "geometry": {
    "type": "Point",
    "coordinates": [
     98.93567,
     39.52429
    ]
   },
   "properties": {
    "name": "Fulu Xian",
    "prefecture": "Su Zhou",
    "province": "Longyou Dao",
    "dynasty": "唐朝",
    "year": 742,
    "population": 220.0,
    "type": "County Seat",
    "county_id": "1403"
   }
  },
  {
   "type": "Feature",
   "geometry": {
    "type": "Point",
    "coordinates": [
     96.24038,
     40.21525
    ]
   },
   "properties": {
    "name": "Jinchang Xian",
    "prefecture": "Gua Zhou",
    "province": "Longyou Dao",
    "dynasty": "唐朝",
    "year": 742,
    "population": 3853.7,
    "type": "Prefecture Seat",
    "county_id": "1404"
   }
  },
  {
   "type": "Feature",
   "geometry": {
    "type": "Point",
    "coordinates": [
     98.50752,
     39.72597
    ]
   },
   "properties": {
    "name": "Jiuquan Xian",
    "prefecture": "Su Zhou",
    "province": "Longyou Dao",
    "dynasty": "唐朝",
    "year": 742,
    "population": 8256.0,
    "type": "Prefecture Seat",
    "county_id": "1405"
   }
  }
 ]
}